STARLINK-2132           
1 47729U 21017H   24136.00002291  .00036395  00000+0  24481-2 0  9996
2 47729  53.0549 246.2381 0001191 100.0709 260.0415 15.06423759177984
STARLINK-2140           
1 47730U 21017J   24135.79450680  .00001251  00000+0  10286-3 0  9994
2 47730  53.0564 316.9696 0001362  83.3952 276.7192 15.06407318176966
STARLINK-2141           
1 47731U 21017K   24136.19858661  .00003001  00000+0  22036-3 0  9992
2 47731  53.0570 310.1445 0002104  92.1866 267.9364 15.06392271177098
STARLINK-2142           
1 47732U 21017L   24135.50793910 -.00003391  00000+0 -20878-3 0  9998
2 47732  53.0531 228.4851 0001305  91.7515 268.3623 15.06410747178819
STARLINK-2143           
1 47733U 21017M   24135.78851584  .00004564  00000+0  32506-3 0  9993
2 47733  53.0542 321.9809 0002337 100.4838 259.6414 15.06404402177570
STARLINK-2144           
1 47734U 21017N   24136.20595749  .00008133  00000+0  56414-3 0  9990
2 47734  53.0548 310.1123 0002299  83.1804 276.9447 15.06408817177092
STARLINK-2146           
1 47735U 21017P   24135.49226284  .00005641  00000+0  39748-3 0  9998
2 47735  53.0543 238.4768 0003017 146.4356 213.6825 15.06385475178665
STARLINK-2147           
1 47736U 21017Q   24136.17371197  .00014048  00000+0  95982-3 0  9992
2 47736  53.0548 300.2534 0003067  85.0514 275.0825 15.06409452177235
STARLINK-2148           
1 47737U 21017R   24135.53058444  .00003778  00000+0  36106-4 0  9991
2 47737  53.0529  72.1293 0001203  70.7234 289.3912 15.69656842180406
STARLINK-2150           
1 47739U 21017T   24135.57243280 -.00004393  00000+0 -27616-3 0  9992
2 47739  53.0541 327.9532 0001361  82.0616 278.0527 15.06401846176791
STARLINK-2152           
1 47740U 21017U   24136.21699151  .00006531  00000+0  45681-3 0  9994
2 47740  53.0532 310.0577 0001098 100.4562 259.6551 15.06409886177095
STARLINK-2154           
1 47741U 21017V   24136.28335378  .17580417  12457-4  16994-2 0  9996
2 47741  53.0223 285.1525 0009822 354.0233  80.3397 16.37437916177450
STARLINK-2156           
1 47742U 21017W   24136.17738618  .00003223  00000+0  23510-3 0  9995
2 47742  53.0532 300.2372 0001187  93.2277 266.8847 15.06410142177233
STARLINK-2157           
1 47743U 21017X   24135.73875705  .00006296  00000+0  44110-3 0  9998
2 47743  53.0557 302.2063 0002096  95.6711 264.4517 15.06409862177829
STARLINK-2158           
1 47744U 21017Y   24136.13909743  .00057653  00000+0  47070-3 0  9995
2 47744  53.0530 282.9361 0001840  99.3462 260.7762 15.70049355177465
STARLINK-2159           
1 47745U 21017Z   24136.20963689  .00040747  00000+0  27373-2 0  9992
2 47745  53.0538 310.0923 0000391  42.2386 317.8633 15.06418593177096
STARLINK-2160           
1 47746U 21017AA  24135.20706772  .00005496  00000+0  38760-3 0  9995
2 47746  53.0531 314.5964 0002072  84.8600 275.2626 15.06396426176945
STARLINK-2161           
1 47747U 21017AB  24135.73507714  .00007108  00000+0  49561-3 0  9992
2 47747  53.0535 302.2226 0002215  93.8956 266.2287 15.06399164177821
STARLINK-2162           
1 47748U 21017AC  24135.72769574  .00014259  00000+0  97391-3 0  9995
2 47748  53.0534 302.2550 0002366  89.1007 271.0253 15.06411318177792
STARLINK-2163           
1 47749U 21017AD  24135.74244080  .00007596  00000+0  52803-3 0  9993
2 47749  53.0546 302.1891 0003468  94.8882 265.2503 15.06417257177792
STARLINK-2164           
1 47750U 21017AE  24135.72034440  .00014655  00000+0  10006-2 0  9992
2 47750  53.0524 302.2894 0001065  93.9201 266.1909 15.06402359177797
STARLINK-2168           
1 47751U 21017AF  24136.25001157  .00198909  00000+0  42771-2 0  9990
2 47751  53.0514 280.7614 0000816  58.3717 138.1401 15.43424969177503
STARLINK-2169           
1 47752U 21017AG  24135.51898099 -.00005301  00000+0 -33724-3 0  9992
2 47752  53.0558 308.1956 0001824  90.4924 269.6274 15.06400873177744
STARLINK-2170           
1 47753U 21017AH  24136.22437065  .00004092  00000+0  29340-3 0  9997
2 47753  53.0553 310.0245 0002130 103.8346 256.2880 15.06404050177095
STARLINK-2171           
1 47754U 21017AJ  24136.19489168  .00001401  00000+0  11296-3 0  9997
2 47754  53.0577 310.1592 0002133  86.1774 273.9459 15.06399269177092
STARLINK-2174           
1 47756U 21017AL  24135.92580884  .00001947  00000+0  14959-3 0  9990
2 47756  53.0543 311.3669 0001374  73.7526 286.3614 15.06400840177738
STARLINK-2175           
1 47757U 21017AM  24136.17645593  .00006244  00000+0  43761-3 0  9996
2 47757  53.0558 310.2436 0002035  99.8307 260.2912 15.06409647177091
STARLINK-2178           
1 47760U 21017AQ  24135.81063679  .00006780  00000+0  47349-3 0  9990
2 47760  53.0555 321.8849 0001543  84.9474 275.1691 15.06408268176895
STARLINK-2179           
1 47761U 21017AR  24136.17277499  .00002739  00000+0  20264-3 0  9995
2 47761  53.0570 310.2600 0001442  96.0169 264.0985 15.06406759177092
STARLINK-2180           
1 47762U 21017AS  24135.80096587  .00008906  00000+0  61595-3 0  9996
2 47762  53.0563 326.9365 0002078  93.9897 266.1330 15.06405475176828
STARLINK-2181           
1 47763U 21017AT  24136.21471711  .00005698  00000+0  40113-3 0  9997
2 47763  53.0563 315.0707 0004248  82.1534 277.9937 15.06399540177028
STARLINK-2182           
1 47764U 21017AU  24135.78621891 -.00000234  00000+0  31594-5 0  9992
2 47764  53.0552 326.9947 0001523  85.6335 274.4828 15.06391289176824
STARLINK-2184           
1 47766U 21017AW  24135.80370293  .00007953  00000+0  55209-3 0  9995
2 47766  53.0551 326.9038 0002123  97.5925 262.5306 15.06407286177443
STARLINK-2185           
1 47767U 21017AX  24135.76363921  .00009111  00000+0  62946-3 0  9995
2 47767  53.0567 312.0936 0002432 101.3264 258.7998 15.06418197177714
STARLINK-2189           
1 47768U 21017AY  24135.93738883  .00008961  00000+0  61944-3 0  9997
2 47768  53.0548 326.7116 0001547  96.4052 263.7113 15.06415230177496
STARLINK-2192           
1 47769U 21017AZ  24136.14513950  .00001190  00000+0  98844-4 0  9995
2 47769  53.0553 290.3817 0002388  87.5877 272.5386 15.06393003177366
STARLINK-2193           
1 47770U 21017BA  24135.75487855  .00004364  00000+0  31164-3 0  9994
2 47770  53.0558 307.1341 0002152  94.8436 265.2799 15.06409451177758
STARLINK-2194           
1 47771U 21017BB  24136.16401457  .00012517  00000+0  85734-3 0  9996
2 47771  53.0563 305.2973 0001442  76.5172 283.5978 15.06417118177166
STARLINK-2195           
1 47772U 21017BC  24135.82168755  .00001044  00000+0  88971-4 0  9990
2 47772  53.0547 321.8336 0001414  76.8704 283.2442 15.06396593176894
STARLINK-2196           
1 47773U 21017BD  24135.81799173  .00002893  00000+0  21306-3 0  9995
2 47773  53.0569 321.8493 0002469  75.1947 284.9315 15.06403473176898
STARLINK-2197           
1 47774U 21017BE  24135.81431367 -.00004153  00000+0 -26010-3 0  9994
2 47774  53.0563 321.8727 0001364  96.6018 263.5126 15.06394026177531
STARLINK-2198           
1 47775U 21017BF  24135.49363356  .00005623  00000+0  39632-3 0  9996
2 47775  53.0554 323.3079 0001456  78.4466 281.6687 15.06375211177534
STARLINK-2209           
1 47776U 21017BG  24135.78575012  .00003601  00000+0  26046-3 0  9992
2 47776  53.0554 311.9959 0001428  86.6265 273.4887 15.06406627177685
STARLINK-2210           
1 47777U 21017BH  24136.18752261  .00015542  00000+0  10599-2 0  9993
2 47777  53.0544 310.1919 0001011  78.4780 281.6322 15.06403033177099
STARLINK-2211           
1 47778U 21017BJ  24135.75626289  .00005875  00000+0  41291-3 0  9998
2 47778  53.0542 312.1281 0002033  92.7108 267.4114 15.06407069177678
STARLINK-2213           
1 47780U 21017BL  24135.78206804  .00004341  00000+0  31005-3 0  9990
2 47780  53.0559 312.0136 0000668  63.7335 296.3723 15.06406701177713
STARLINK-2223           
1 47781U 21017BM  24135.48351203  .00005426  00000+0  38285-3 0  9994
2 47781  53.0514 313.3524 0001953  89.1856 270.9357 15.06400151177622
STARLINK-2257           
1 47787U 21018A   24135.90001812  .00005699  00000+0  40120-3 0  9999
2 47787  53.0575 351.4806 0002512  88.4264 271.7012 15.06399062176206
STARLINK-2314           
1 47788U 21018B   24135.91154047  .00000107  00000+0  26112-4 0  9995
2 47788  53.0550 326.4302 0002730  86.4126 273.7176 15.06396970176567
STARLINK-2315           
1 47789U 21018C   24136.22621518  .00014729  00000+0  10053-2 0  9993
2 47789  53.0568 330.0187 0001371  80.4083 279.7061 15.06412729176532
STARLINK-2319           
1 47790U 21018D   24135.93594038  .00001683  00000+0  13179-3 0  9996
2 47790  53.0578 321.3196 0000502  83.0859 277.0187 15.06409829176989
STARLINK-2322           
1 47791U 21018E   24135.88895276  .00001420  00000+0  11421-3 0  9996
2 47791  53.0548 351.5307 0001345  92.2616 267.8527 15.06404945176557
STARLINK-2334           
1 47792U 21018F   24135.96820821  .00010308  00000+0  70985-3 0  9995
2 47792  53.0543 331.1778 0001146  86.7324 273.3796 15.06403357176491
STARLINK-2338           
1 47793U 21018G   24135.85025725  .00001361  00000+0  11021-3 0  9999
2 47793  53.0536 331.7043 0001416  66.9843 293.1295 15.06408540176472
STARLINK-2341           
1 47794U 21018H   24135.91667824  .00987953  42896-3  29948-2 0  9998
2 47794  53.0469 302.9853 0000592  62.7895 222.5156 15.91587795176872
STARLINK-2347           
1 47795U 21018J   24135.57748656 -.00004153  00000+0 -26010-3 0  9993
2 47795  53.0570 332.9348 0001744 101.9424 258.1760 15.06394291176433
STARLINK-2373           
1 47796U 21018K   24135.52589190  .00002194  00000+0  16613-3 0  9994
2 47796  53.0543 333.1628 0002106  97.3217 262.8011 15.06408048176425
STARLINK-2377           
1 47797U 21018L   24136.02672605  .00033060  00000+0  22269-2 0  9994
2 47797  53.0563 355.9144 0001506  85.2648 274.8513 15.06417199176157
STARLINK-2379           
1 47798U 21018M   24135.80234055  .00001813  00000+0  14056-3 0  9990
2 47798  53.0542 331.9215 0001778  83.3695 276.7496 15.06407350176812
